{
"type": "FeatureCollection",
"name": "evacuation_sites_tokachi_tsunami",
"crs": { "type": "name", "properties": { "name": "urn:ogc:def:crs:OGC:1.3:CRS84" } },
"features": [
{ "type": "Feature", "properties": { "fid": 259, "NO": "592", "共通ID": "E0164900001201", "施設・場所名": "林道厚内線避難場所", "住所": "北海道浦幌町字オコッペ31-17", "洪水": "", "崖崩れ、土石流及び地滑り": "", "高潮": "", "地震": "", "津波": "1", "大規模な火事": "", "内水氾濫": "", "火山現象": "", "指定避難所との住所同一": "", "備考": "" }, "geometry": { "type": "Point", "coordinates": [ 143.802322, 42.813821 ] } },
{ "type": "Feature", "properties": { "fid": 260, "NO": "594", "共通ID": "E0164900004201", "施設・場所名": "浜厚内高台", "住所": "北海道浦幌町字チプネオコッペ1-1", "洪水": "", "崖崩れ、土石流及び地滑り": "", "高潮": "", "地震": "", "津波": "1", "大規模な火事": "", "内水氾濫": "", "火山現象": "", "指定避難所との住所同一": "", "備考": "" }, "geometry": { "type": "Point", "coordinates": [ 143.809565, 42.800823 ] } },
{ "type": "Feature", "properties": { "fid": 261, "NO": "603", "共通ID": "E0164900012201", "施設・場所名": "吉野公民館", "住所": "北海道浦幌町字吉野111", "洪水": "1", "崖崩れ、土石流及び地滑り": "1", "高潮": "", "地震": "1", "津波": "1", "大規模な火事": "", "内水氾濫": "", "火山現象": "", "指定避難所との住所同一": "1", "備考": "" }, "geometry": { "type": "Point", "coordinates": [ 143.608883, 42.776427 ] } },
{ "type": "Feature", "properties": { "fid": 262, "NO": "605", "共通ID": "E0164900014201", "施設・場所名": "斉藤牧場牧草地角避難場所", "住所": "北海道浦幌町字厚内1-9", "洪水": "", "崖崩れ、土石流及び地滑り": "", "高潮": "", "地震": "", "津波": "1", "大規模な火事": "", "内水氾濫": "", "火山現象": "", "指定避難所との住所同一": "", "備考": "" }, "geometry": { "type": "Point", "coordinates": [ 143.819256, 42.811868 ] } },
{ "type": "Feature", "properties": { "fid": 263, "NO": "607", "共通ID": "E0164900018201", "施設・場所名": "堺氏の沢避難場所", "住所": "北海道浦幌町字厚内71-1", "洪水": "", "崖崩れ、土石流及び地滑り": "", "高潮": "", "地震": "", "津波": "1", "大規模な火事": "", "内水氾濫": "", "火山現象": "", "指定避難所との住所同一": "", "備考": "" }, "geometry": { "type": "Point", "coordinates": [ 143.802722, 42.8237 ] } },
{ "type": "Feature", "properties": { "fid": 264, "NO": "612", "共通ID": "E0164900022201", "施設・場所名": "模範牧場", "住所": "北海道浦幌町字十勝太187-4", "洪水": "", "崖崩れ、土石流及び地滑り": "", "高潮": "", "地震": "", "津波": "1", "大規模な火事": "", "内水氾濫": "", "火山現象": "", "指定避難所との住所同一": "", "備考": "" }, "geometry": { "type": "Point", "coordinates": [ 143.71575, 42.736909 ] } },
{ "type": "Feature", "properties": { "fid": 658, "NO": "1742", "共通ID": "E0164200008201", "施設・場所名": "広尾小学校グラウンド", "住所": "北海道広尾町公園通南4-9", "洪水": "", "崖崩れ、土石流及び地滑り": "", "高潮": "", "地震": "1", "津波": "1", "大規模な火事": "", "内水氾濫": "", "火山現象": "", "指定避難所との住所同一": "1", "備考": "" }, "geometry": { "type": "Point", "coordinates": [ 143.303507, 42.299829 ] } },
{ "type": "Feature", "properties": { "fid": 659, "NO": "1743", "共通ID": "E0164200009201", "施設・場所名": "青少年研修センター前", "住所": "北海道広尾町公園通北2-51", "洪水": "", "崖崩れ、土石流及び地滑り": "", "高潮": "", "地震": "1", "津波": "1", "大規模な火事": "", "内水氾濫": "", "火山現象": "", "指定避難所との住所同一": "1", "備考": "" }, "geometry": { "type": "Point", "coordinates": [ 143.312986, 42.300138 ] } },
{ "type": "Feature", "properties": { "fid": 660, "NO": "1744", "共通ID": "E0164200012201", "施設・場所名": "音調津避難施設前（スキー場跡地）", "住所": "北海道広尾町字音調津153-1", "洪水": "", "崖崩れ、土石流及び地滑り": "", "高潮": "", "地震": "1", "津波": "1", "大規模な火事": "", "内水氾濫": "", "火山現象": "", "指定避難所との住所同一": "1", "備考": "" }, "geometry": { "type": "Point", "coordinates": [ 143.316499, 42.21511 ] } },
{ "type": "Feature", "properties": { "fid": 661, "NO": "1745", "共通ID": "E0164200013201", "施設・場所名": "道道音調津陣屋線駐車帯付近", "住所": "北海道広尾町字音調津２２５地先", "洪水": "", "崖崩れ、土石流及び地滑り": "", "高潮": "", "地震": "1", "津波": "1", "大規模な火事": "", "内水氾濫": "", "火山現象": "", "指定避難所との住所同一": "", "備考": "" }, "geometry": { "type": "Point", "coordinates": [ 143.300293, 42.227534 ] } },
{ "type": "Feature", "properties": { "fid": 662, "NO": "1746", "共通ID": "E0164200014201", "施設・場所名": "美幌地区高台", "住所": "北海道広尾町字美幌基線４－５地先", "洪水": "", "崖崩れ、土石流及び地滑り": "", "高潮": "", "地震": "1", "津波": "1", "大規模な火事": "", "内水氾濫": "", "火山現象": "", "指定避難所との住所同一": "", "備考": "" }, "geometry": { "type": "Point", "coordinates": [ 143.307266, 42.254857 ] } },
{ "type": "Feature", "properties": { "fid": 663, "NO": "1747", "共通ID": "E0164200016201", "施設・場所名": "フンべ地区高台", "住所": "北海道広尾町字茂寄南５－１２－１地先", "洪水": "", "崖崩れ、土石流及び地滑り": "", "高潮": "", "地震": "1", "津波": "1", "大規模な火事": "", "内水氾濫": "", "火山現象": "", "指定避難所との住所同一": "", "備考": "" }, "geometry": { "type": "Point", "coordinates": [ 143.311386, 42.267538 ] } },
{ "type": "Feature", "properties": { "fid": 664, "NO": "1748", "共通ID": "E0164200017201", "施設・場所名": "山フンベ集会所", "住所": "北海道広尾町字茂寄南５線7", "洪水": "", "崖崩れ、土石流及び地滑り": "", "高潮": "", "地震": "1", "津波": "1", "大規模な火事": "", "内水氾濫": "", "火山現象": "", "指定避難所との住所同一": "", "備考": "" }, "geometry": { "type": "Point", "coordinates": [ 143.295342, 42.272089 ] } },
{ "type": "Feature", "properties": { "fid": 665, "NO": "1749", "共通ID": "E0164200015201", "施設・場所名": "役場車両センター", "住所": "北海道広尾町陣屋70", "洪水": "", "崖崩れ、土石流及び地滑り": "", "高潮": "", "地震": "1", "津波": "1", "大規模な火事": "", "内水氾濫": "", "火山現象": "", "指定避難所との住所同一": "", "備考": "" }, "geometry": { "type": "Point", "coordinates": [ 143.305836, 42.285864 ] } },
{ "type": "Feature", "properties": { "fid": 666, "NO": "1750", "共通ID": "E0164200045201", "施設・場所名": "旧広尾保育所グラウンド", "住所": "北海道広尾町西１条5-2", "洪水": "", "崖崩れ、土石流及び地滑り": "", "高潮": "", "地震": "1", "津波": "1", "大規模な火事": "", "内水氾濫": "", "火山現象": "", "指定避難所との住所同一": "", "備考": "" }, "geometry": { "type": "Point", "coordinates": [ 143.315754, 42.285501 ] } },
{ "type": "Feature", "properties": { "fid": 667, "NO": "1751", "共通ID": "E0164200030201", "施設・場所名": "役場コミセン駐車場", "住所": "北海道広尾町西三条7-2-1", "洪水": "", "崖崩れ、土石流及び地滑り": "", "高潮": "", "地震": "1", "津波": "1", "大規模な火事": "", "内水氾濫": "", "火山現象": "", "指定避難所との住所同一": "1", "備考": "" }, "geometry": { "type": "Point", "coordinates": [ 143.312776, 42.286227 ] } },
{ "type": "Feature", "properties": { "fid": 668, "NO": "1752", "共通ID": "E0164200031201", "施設・場所名": "旧広尾小学校グラウンド", "住所": "北海道広尾町西四条9-2-1", "洪水": "", "崖崩れ、土石流及び地滑り": "", "高潮": "", "地震": "1", "津波": "1", "大規模な火事": "", "内水氾濫": "", "火山現象": "", "指定避難所との住所同一": "", "備考": "" }, "geometry": { "type": "Point", "coordinates": [ 143.308549, 42.287141 ] } },
{ "type": "Feature", "properties": { "fid": 669, "NO": "1753", "共通ID": "E0164200046201", "施設・場所名": "老人福祉センター駐車場", "住所": "北海道広尾町東１条11-18", "洪水": "", "崖崩れ、土石流及び地滑り": "", "高潮": "", "地震": "1", "津波": "1", "大規模な火事": "", "内水氾濫": "", "火山現象": "", "指定避難所との住所同一": "", "備考": "" }, "geometry": { "type": "Point", "coordinates": [ 143.315048, 42.291431 ] } },
{ "type": "Feature", "properties": { "fid": 670, "NO": "1754", "共通ID": "E0164200034201", "施設・場所名": "コミュニティーグリーンパーク", "住所": "北海道広尾町白樺通南1-1-1", "洪水": "", "崖崩れ、土石流及び地滑り": "", "高潮": "", "地震": "1", "津波": "1", "大規模な火事": "", "内水氾濫": "", "火山現象": "", "指定避難所との住所同一": "", "備考": "" }, "geometry": { "type": "Point", "coordinates": [ 143.297067, 42.289804 ] } },
{ "type": "Feature", "properties": { "fid": 671, "NO": "1755", "共通ID": "E0164200035201", "施設・場所名": "広尾高校グラウンド", "住所": "北海道広尾町並木通東1-10", "洪水": "", "崖崩れ、土石流及び地滑り": "", "高潮": "", "地震": "1", "津波": "1", "大規模な火事": "", "内水氾濫": "", "火山現象": "", "指定避難所との住所同一": "1", "備考": "" }, "geometry": { "type": "Point", "coordinates": [ 143.314868, 42.296191 ] } },
{ "type": "Feature", "properties": { "fid": 672, "NO": "1756", "共通ID": "E0164200047201", "施設・場所名": "第２ふ頭避難階段空き地", "住所": "北海道広尾町並木通東１丁目40", "洪水": "", "崖崩れ、土石流及び地滑り": "", "高潮": "", "地震": "1", "津波": "1", "大規模な火事": "", "内水氾濫": "", "火山現象": "", "指定避難所との住所同一": "", "備考": "" }, "geometry": { "type": "Point", "coordinates": [ 143.315918, 42.295502 ] } },
{ "type": "Feature", "properties": { "fid": 673, "NO": "1757", "共通ID": "E0164200048201", "施設・場所名": "十勝港展望台", "住所": "北海道広尾町並木通東３丁目57", "洪水": "", "崖崩れ、土石流及び地滑り": "", "高潮": "", "地震": "1", "津波": "1", "大規模な火事": "", "内水氾濫": "", "火山現象": "", "指定避難所との住所同一": "", "備考": "" }, "geometry": { "type": "Point", "coordinates": [ 143.319794, 42.304268 ] } },
{ "type": "Feature", "properties": { "fid": 674, "NO": "1758", "共通ID": "E0164200042201", "施設・場所名": "豊似小学校グラウンド", "住所": "北海道広尾町紋別１８線50", "洪水": "", "崖崩れ、土石流及び地滑り": "", "高潮": "", "地震": "1", "津波": "1", "大規模な火事": "", "内水氾濫": "", "火山現象": "", "指定避難所との住所同一": "", "備考": "" }, "geometry": { "type": "Point", "coordinates": [ 143.304078, 42.399083 ] } },
{ "type": "Feature", "properties": { "fid": 675, "NO": "1759", "共通ID": "E0164200043201", "施設・場所名": "農村環境改善センター前", "住所": "北海道広尾町紋別１９線51-12", "洪水": "", "崖崩れ、土石流及び地滑り": "", "高潮": "", "地震": "1", "津波": "1", "大規模な火事": "", "内水氾濫": "", "火山現象": "", "指定避難所との住所同一": "", "備考": "" }, "geometry": { "type": "Point", "coordinates": [ 143.301595, 42.399118 ] } },
{ "type": "Feature", "properties": { "fid": 676, "NO": "1760", "共通ID": "E0164200044201", "施設・場所名": "旧野塚小学校グラウンド", "住所": "北海道広尾町野塚９線40", "洪水": "", "崖崩れ、土石流及び地滑り": "", "高潮": "", "地震": "1", "津波": "1", "大規模な火事": "", "内水氾濫": "", "火山現象": "", "指定避難所との住所同一": "", "備考": "" }, "geometry": { "type": "Point", "coordinates": [ 143.293435, 42.354148 ] } },
{ "type": "Feature", "properties": { "fid": 1375, "NO": "4240", "共通ID": "E0164100007201", "施設・場所名": "歴舟地域コミュニティセンター", "住所": "北海道大樹町字芽武183", "洪水": "", "崖崩れ、土石流及び地滑り": "", "高潮": "", "地震": "1", "津波": "1", "大規模な火事": "", "内水氾濫": "", "火山現象": "", "指定避難所との住所同一": "1", "備考": "" }, "geometry": { "type": "Point", "coordinates": [ 143.368475, 42.47716 ] } },
{ "type": "Feature", "properties": { "fid": 1376, "NO": "4241", "共通ID": "E0164100024201", "施設・場所名": "中島地域コミュニティセンター", "住所": "北海道大樹町字中島172", "洪水": "", "崖崩れ、土石流及び地滑り": "", "高潮": "", "地震": "1", "津波": "1", "大規模な火事": "", "内水氾濫": "", "火山現象": "", "指定避難所との住所同一": "1", "備考": "" }, "geometry": { "type": "Point", "coordinates": [ 143.362622, 42.434327 ] } },
{ "type": "Feature", "properties": { "fid": 1377, "NO": "4242", "共通ID": "E0164300001201", "施設・場所名": "晩成行政区会館（大樹町）※津波時", "住所": "北海道大樹町字晩成209", "洪水": "", "崖崩れ、土石流及び地滑り": "", "高潮": "", "地震": "", "津波": "1", "大規模な火事": "", "内水氾濫": "", "火山現象": "", "指定避難所との住所同一": "", "備考": "" }, "geometry": { "type": "Point", "coordinates": [ 143.440404, 42.543488 ] } },
{ "type": "Feature", "properties": { "fid": 2165, "NO": "6042", "共通ID": "E0164500005201", "施設・場所名": "大津港町築山津波緊急避難場所", "住所": "北海道豊頃町大津港町31-1", "洪水": "", "崖崩れ、土石流及び地滑り": "", "高潮": "", "地震": "", "津波": "1", "大規模な火事": "", "内水氾濫": "", "火山現象": "", "指定避難所との住所同一": "", "備考": "" }, "geometry": { "type": "Point", "coordinates": [ 143.644533, 42.68374 ] } },
{ "type": "Feature", "properties": { "fid": 2166, "NO": "6043", "共通ID": "E0164500009201", "施設・場所名": "国道３３６号津波緊急避難場所", "住所": "北海道豊頃町長節1087-10", "洪水": "", "崖崩れ、土石流及び地滑り": "", "高潮": "", "地震": "", "津波": "1", "大規模な火事": "", "内水氾濫": "", "火山現象": "", "指定避難所との住所同一": "", "備考": "" }, "geometry": { "type": "Point", "coordinates": [ 143.604772, 42.686618 ] } },
{ "type": "Feature", "properties": { "fid": 2167, "NO": "6044", "共通ID": "E0164500011201", "施設・場所名": "トンケシ津波緊急避難場所", "住所": "北海道豊頃町長節738", "洪水": "", "崖崩れ、土石流及び地滑り": "", "高潮": "", "地震": "", "津波": "1", "大規模な火事": "", "内水氾濫": "", "火山現象": "", "指定避難所との住所同一": "", "備考": "" }, "geometry": { "type": "Point", "coordinates": [ 143.63095, 42.672043 ] } }
]
}
